SL-16 R/B               
1 22803U 93059B   26075.88793672  .00000191  00000+0  11803-3 0  9997
2 22803  70.9930 355.9478 0018115 205.9642 154.0575 14.17232316680551
ARIANE 40 R/B           
1 22830U 93061H   26075.61178494  .00000195  00000+0  87434-4 0  9998
2 22830  98.4902 144.3624 0009575 262.1782  97.8316 14.32864707695092
COSMOS 2278             
1 23087U 94023A   26075.59934391 -.00000118  00000+0 -37212-4 0  9991
2 23087  71.0546 160.6430 0008531   1.0318 359.0821 14.14379394645788
SL-16 R/B               
1 23088U 94023B   26075.64271594 -.00000110  00000+0 -31971-4 0  9995
2 23088  70.9990  56.2836 0005572 278.8188  81.2304 14.15010026647070
SL-16 R/B               
1 23343U 94074B   26075.84850479  .00000437  00000+0  65125-4 0  9990
2 23343  97.7098 106.3762 0006333 185.3521 347.4257 14.79416368688308
SL-16 R/B               
1 23405U 94077B   26075.83363097  .00000289  00000+0  17198-3 0  9997
2 23405  70.9851 337.4611 0002683 203.3491 156.7511 14.15563836617240
ARIANE 40+ R/B          
1 23561U 95021B   26075.84674748  .00000260  00000+0  96814-4 0  9991
2 23561  98.4483 147.2320 0007878 117.7141 359.8322 14.39777671620277
SL-16 R/B               
1 23705U 95058B   26075.69962711  .00000171  00000+0  11150-3 0  9994
2 23705  71.0223 165.5387 0010479 113.0613 247.1615 14.15499736568841
SL-16 R/B               
1 24298U 96051B   26074.97333891  .00000064  00000+0  61450-4 0  9997
2 24298  70.7601 161.9397 0014545 138.2751 221.9481 14.12417287522531
ORBVIEW 2 (SEASTAR)     
1 24883U 97037A   26075.87599597  .00000250  00000+0  10326-3 0  9991
2 24883  98.8580 240.3786 0002897  57.1493 302.9970 14.35500207509506
SL-16 R/B               
1 25400U 98043G   26075.81808999  .00000046  00000+0  38098-4 0  9998
2 25400  98.8265  29.2324 0009845   0.3878 359.7308 14.26051449440004
SL-16 R/B               
1 25407U 98045B   26075.70711373  .00000225  00000+0  13749-3 0  9998
2 25407  71.0120 166.8175 0007190 357.1907   2.9175 14.16193912428098
ISS (ZARYA)             
1 25544U 98067A   26075.87060927  .00008783  00000+0  17131-3 0  9990
2 25544  51.6334  36.8567 0006342 198.5376 161.5382 15.48321468557446
CZ-4B R/B               
1 25732U 99025C   26075.88331683  .00000050  00000+0  45077-4 0  9995
2 25732  98.6610 119.9940 0036385 325.6534 207.4240 14.18266786389184
OKEAN-O                 
1 25860U 99039A   26075.14091274  .00000719  00000+0  10118-3 0  9999
2 25860  97.9428 134.9664 0001057  73.0371 287.0956 14.80346720435340
SL-16 R/B               
1 25861U 99039B   26075.65493975  .00000524  00000+0  73226-4 0  9994
2 25861  97.9949 134.7408 0013729 231.4862 128.5120 14.81741470437893
DELTA 2 R/B             
1 25876U 99041E   26075.80413598  .00000916  00000+0  18619-3 0  9992
2 25876  51.7614 272.8619 0502548   9.4183 351.5757 14.11858703364035
