[{"OBJECT_NAME":"SL-16 R/B","OBJECT_ID":"1993-059B","EPOCH":"2026-03-16T21:18:37.732608","MEAN_MOTION":14.17232316,"ECCENTRICITY":0.0018115,"INCLINATION":70.993,"RA_OF_ASC_NODE":355.9478,"ARG_OF_PERICENTER":205.9642,"MEAN_ANOMALY":154.0575,"EPHEMERIS_TYPE":0,"CLASSIFICATION_TYPE":"U","NORAD_CAT_ID":22803,"ELEMENT_SET_NO":999,"REV_AT_EPOCH":68055,"BSTAR":0.00011803,"MEAN_MOTION_DOT":1.91e-6,"MEAN_MOTION_DDOT":0},{"OBJECT_NAME":"ARIANE 40 R/B","OBJECT_ID":"1993-061H","EPOCH":"2026-03-16T14:40:58.218816","MEAN_MOTION":14.32864707,"ECCENTRICITY":0.0009575,"INCLINATION":98.4902,"RA_OF_ASC_NODE":144.3624,"ARG_OF_PERICENTER":262.1782,"MEAN_ANOMALY":97.8316,"EPHEMERIS_TYPE":0,"CLASSIFICATION_TYPE":"U","NORAD_CAT_ID":22830,"ELEMENT_SET_NO":999,"REV_AT_EPOCH":69509,"BSTAR":8.7434e-5,"MEAN_MOTION_DOT":1.95e-6,"MEAN_MOTION_DDOT":0},{"OBJECT_NAME":"COSMOS 2278","OBJECT_ID":"1994-023A","EPOCH":"2026-03-16T14:23:03.313824","MEAN_MOTION":14.14379394,"ECCENTRICITY":0.0008531,"INCLINATION":71.0546,"RA_OF_ASC_NODE":160.643,"ARG_OF_PERICENTER":1.0318,"MEAN_ANOMALY":359.0821,"EPHEMERIS_TYPE":0,"CLASSIFICATION_TYPE":"U","NORAD_CAT_ID":23087,"ELEMENT_SET_NO":999,"REV_AT_EPOCH":64578,"BSTAR":-3.7212e-5,"MEAN_MOTION_DOT":-1.18e-6,"MEAN_MOTION_DDOT":0},{"OBJECT_NAME":"SL-16 R/B","OBJECT_ID":"1994-023B","EPOCH":"2026-03-16T15:25:30.657216","MEAN_MOTION":14.15010026,"ECCENTRICITY":0.0005572,"INCLINATION":70.999,"RA_OF_ASC_NODE":56.2836,"ARG_OF_PERICENTER":278.8188,"MEAN_ANOMALY":81.2304,"EPHEMERIS_TYPE":0,"CLASSIFICATION_TYPE":"U","NORAD_CAT_ID":23088,"ELEMENT_SET_NO":999,"REV_AT_EPOCH":64707,"BSTAR":-3.1971e-5,"MEAN_MOTION_DOT":-1.1e-6,"MEAN_MOTION_DDOT":0},{"OBJECT_NAME":"SL-16 R/B","OBJECT_ID":"1994-074B","EPOCH":"2026-03-16T20:21:50.813856","MEAN_MOTION":14.79416368,"ECCENTRICITY":0.0006333,"INCLINATION":97.7098,"RA_OF_ASC_NODE":106.3762,"ARG_OF_PERICENTER":185.3521,"MEAN_ANOMALY":347.4257,"EPHEMERIS_TYPE":0,"CLASSIFICATION_TYPE":"U","NORAD_CAT_ID":23343,"ELEMENT_SET_NO":999,"REV_AT_EPOCH":68830,"BSTAR":6.5125e-5,"MEAN_MOTION_DOT":4.37e-6,"MEAN_MOTION_DDOT":0},{"OBJECT_NAME":"SL-16 R/B","OBJECT_ID":"1994-077B","EPOCH":"2026-03-16T20:00:25.715808","MEAN_MOTION":14.15563836,"ECCENTRICITY":0.0002683,"INCLINATION":70.9851,"RA_OF_ASC_NODE":337.4611,"ARG_OF_PERICENTER":203.3491,"MEAN_ANOMALY":156.7511,"EPHEMERIS_TYPE":0,"CLASSIFICATION_TYPE":"U","NORAD_CAT_ID":23405,"ELEMENT_SET_NO":999,"REV_AT_EPOCH":61724,"BSTAR":0.00017198,"MEAN_MOTION_DOT":2.89e-6,"MEAN_MOTION_DDOT":0},{"OBJECT_NAME":"ARIANE 40+ R/B","OBJECT_ID":"1995-021B","EPOCH":"2026-03-16T20:19:18.982272","MEAN_MOTION":14.39777671,"ECCENTRICITY":0.0007878,"INCLINATION":98.4483,"RA_OF_ASC_NODE":147.232,"ARG_OF_PERICENTER":117.7141,"MEAN_ANOMALY":359.8322,"EPHEMERIS_TYPE":0,"CLASSIFICATION_TYPE":"U","NORAD_CAT_ID":23561,"ELEMENT_SET_NO":999,"REV_AT_EPOCH":62027,"BSTAR":9.6814e-5,"MEAN_MOTION_DOT":2.6e-6,"MEAN_MOTION_DDOT":0},{"OBJECT_NAME":"SL-16 R/B","OBJECT_ID":"1995-058B","EPOCH":"2026-03-16T16:47:27.782304","MEAN_MOTION":14.15499736,"ECCENTRICITY":0.0010479,"INCLINATION":71.0223,"RA_OF_ASC_NODE":165.5387,"ARG_OF_PERICENTER":113.0613,"MEAN_ANOMALY":247.1615,"EPHEMERIS_TYPE":0,"CLASSIFICATION_TYPE":"U","NORAD_CAT_ID":23705,"ELEMENT_SET_NO":999,"REV_AT_EPOCH":56884,"BSTAR":0.0001115,"MEAN_MOTION_DOT":1.71e-6,"MEAN_MOTION_DDOT":0},{"OBJECT_NAME":"SL-16 R/B","OBJECT_ID":"1996-051B","EPOCH":"2026-03-15T23:21:36.481824","MEAN_MOTION":14.12417287,"ECCENTRICITY":0.00145453,"INCLINATION":70.7601,"RA_OF_ASC_NODE":161.9397,"ARG_OF_PERICENTER":138.2751,"MEAN_ANOMALY":221.9481,"EPHEMERIS_TYPE":0,"CLASSIFICATION_TYPE":"U","NORAD_CAT_ID":24298,"ELEMENT_SET_NO":999,"REV_AT_EPOCH":52253,"BSTAR":6.1450355e-5,"MEAN_MOTION_DOT":6.4e-7,"MEAN_MOTION_DDOT":0},{"OBJECT_NAME":"ORBVIEW 2 (SEASTAR)","OBJECT_ID":"1997-037A","EPOCH":"2026-03-16T21:01:26.051808","MEAN_MOTION":14.35500207,"ECCENTRICITY":0.0002897,"INCLINATION":98.858,"RA_OF_ASC_NODE":240.3786,"ARG_OF_PERICENTER":57.1493,"MEAN_ANOMALY":302.997,"EPHEMERIS_TYPE":0,"CLASSIFICATION_TYPE":"U","NORAD_CAT_ID":24883,"ELEMENT_SET_NO":999,"REV_AT_EPOCH":50950,"BSTAR":0.00010326,"MEAN_MOTION_DOT":2.5e-6,"MEAN_MOTION_DDOT":0},{"OBJECT_NAME":"SL-16 R/B","OBJECT_ID":"1998-043G","EPOCH":"2026-03-16T19:38:02.975136","MEAN_MOTION":14.26051449,"ECCENTRICITY":0.0009845,"INCLINATION":98.8265,"RA_OF_ASC_NODE":29.2324,"ARG_OF_PERICENTER":0.3878,"MEAN_ANOMALY":359.7308,"EPHEMERIS_TYPE":0,"CLASSIFICATION_TYPE":"U","NORAD_CAT_ID":25400,"ELEMENT_SET_NO":999,"REV_AT_EPOCH":44000,"BSTAR":3.8098e-5,"MEAN_MOTION_DOT":4.6e-7,"MEAN_MOTION_DDOT":0},{"OBJECT_NAME":"SL-16 R/B","OBJECT_ID":"1998-045B","EPOCH":"2026-03-16T16:58:14.626272","MEAN_MOTION":14.16193912,"ECCENTRICITY":0.000719,"INCLINATION":71.012,"RA_OF_ASC_NODE":166.8175,"ARG_OF_PERICENTER":357.1907,"MEAN_ANOMALY":2.9175,"EPHEMERIS_TYPE":0,"CLASSIFICATION_TYPE":"U","NORAD_CAT_ID":25407,"ELEMENT_SET_NO":999,"REV_AT_EPOCH":42809,"BSTAR":0.00013749,"MEAN_MOTION_DOT":2.25e-6,"MEAN_MOTION_DDOT":0},{"OBJECT_NAME":"ISS (ZARYA)","OBJECT_ID":"1998-067A","EPOCH":"2026-03-16T20:53:40.640928","MEAN_MOTION":15.48321468,"ECCENTRICITY":0.0006342,"INCLINATION":51.6334,"RA_OF_ASC_NODE":36.8567,"ARG_OF_PERICENTER":198.5376,"MEAN_ANOMALY":161.5382,"EPHEMERIS_TYPE":0,"CLASSIFICATION_TYPE":"U","NORAD_CAT_ID":25544,"ELEMENT_SET_NO":999,"REV_AT_EPOCH":55744,"BSTAR":0.00017131,"MEAN_MOTION_DOT":8.783e-5,"MEAN_MOTION_DDOT":0},{"OBJECT_NAME":"CZ-4B R/B","OBJECT_ID":"1999-025C","EPOCH":"2026-03-16T21:11:58.574112","MEAN_MOTION":14.18266786,"ECCENTRICITY":0.0036385,"INCLINATION":98.661,"RA_OF_ASC_NODE":119.994,"ARG_OF_PERICENTER":325.6534,"MEAN_ANOMALY":207.424,"EPHEMERIS_TYPE":0,"CLASSIFICATION_TYPE":"U","NORAD_CAT_ID":25732,"ELEMENT_SET_NO":999,"REV_AT_EPOCH":38918,"BSTAR":4.5077e-5,"MEAN_MOTION_DOT":5.0e-7,"MEAN_MOTION_DDOT":0},{"OBJECT_NAME":"OKEAN-O","OBJECT_ID":"1999-039A","EPOCH":"2026-03-16T03:22:54.860736","MEAN_MOTION":14.8034672,"ECCENTRICITY":0.00010571,"INCLINATION":97.9428,"RA_OF_ASC_NODE":134.9664,"ARG_OF_PERICENTER":73.0371,"MEAN_ANOMALY":287.0956,"EPHEMERIS_TYPE":0,"CLASSIFICATION_TYPE":"U","NORAD_CAT_ID":25860,"ELEMENT_SET_NO":999,"REV_AT_EPOCH":43534,"BSTAR":0.00010117509,"MEAN_MOTION_DOT":7.19e-6,"MEAN_MOTION_DDOT":0},{"OBJECT_NAME":"SL-16 R/B","OBJECT_ID":"1999-039B","EPOCH":"2026-03-16T15:43:06.794400","MEAN_MOTION":14.8174147,"ECCENTRICITY":0.0013729,"INCLINATION":97.9949,"RA_OF_ASC_NODE":134.7408,"ARG_OF_PERICENTER":231.4862,"MEAN_ANOMALY":128.512,"EPHEMERIS_TYPE":0,"CLASSIFICATION_TYPE":"U","NORAD_CAT_ID":25861,"ELEMENT_SET_NO":999,"REV_AT_EPOCH":43789,"BSTAR":7.3226e-5,"MEAN_MOTION_DOT":5.24e-6,"MEAN_MOTION_DDOT":0},{"OBJECT_NAME":"DELTA 2 R/B","OBJECT_ID":"1999-041E","EPOCH":"2026-03-16T19:17:57.348672","MEAN_MOTION":14.11858703,"ECCENTRICITY":0.0502548,"INCLINATION":51.7614,"RA_OF_ASC_NODE":272.8619,"ARG_OF_PERICENTER":9.4183,"MEAN_ANOMALY":351.5757,"EPHEMERIS_TYPE":0,"CLASSIFICATION_TYPE":"U","NORAD_CAT_ID":25876,"ELEMENT_SET_NO":999,"REV_AT_EPOCH":36403,"BSTAR":0.00018619,"MEAN_MOTION_DOT":9.16e-6,"MEAN_MOTION_DDOT":0}]
